[{"OBJECT_NAME":"STARLINK-5599","OBJECT_ID":"2023-028AB","EPOCH":"2026-03-09T19:52:09.580224","MEAN_MOTION":14.98323956,"ECCENTRICITY":0.00030597,"INCLINATION":69.9999,"RA_OF_ASC_NODE":224.1123,"ARG_OF_PERICENTER":269.3112,"MEAN_ANOMALY":90.7696,"EPHEMERIS_TYPE":0,"CLASSIFICATION_TYPE":"U","NORAD_CAT_ID":55766,"ELEMENT_SET_NO":999,"REV_AT_EPOCH":16655,"BSTAR":-0.00012890269,"MEAN_MOTION_DOT":-1.63e-5,"MEAN_MOTION_DDOT":0},{"OBJECT_NAME":"HAWK-8C","OBJECT_ID":"2024-066H","EPOCH":"2026-03-09T11:22:19.381152","MEAN_MOTION":14.98770227,"ECCENTRICITY":0.00039352,"INCLINATION":45.6068,"RA_OF_ASC_NODE":72.8656,"ARG_OF_PERICENTER":260.2975,"MEAN_ANOMALY":99.7462,"EPHEMERIS_TYPE":0,"CLASSIFICATION_TYPE":"U","NORAD_CAT_ID":59449,"ELEMENT_SET_NO":999,"REV_AT_EPOCH":10486,"BSTAR":0.00021518384,"MEAN_MOTION_DOT":2.4e-5,"MEAN_MOTION_DDOT":0}]
